[{"OBJECT_NAME":"STARLINK-35257","OBJECT_ID":"2025-253N","EPOCH":"2026-03-09T11:11:34.991808","MEAN_MOTION":15.27580068,"ECCENTRICITY":0.000115,"INCLINATION":42.999,"RA_OF_ASC_NODE":213.4736,"ARG_OF_PERICENTER":225.9351,"MEAN_ANOMALY":134.1406,"EPHEMERIS_TYPE":0,"CLASSIFICATION_TYPE":"U","NORAD_CAT_ID":66331,"ELEMENT_SET_NO":999,"REV_AT_EPOCH":2021,"BSTAR":0.00084901227,"MEAN_MOTION_DOT":0.00023174,"MEAN_MOTION_DDOT":0},{"OBJECT_NAME":"SIMSAT 1","OBJECT_ID":"2000-026A","EPOCH":"2026-03-09T17:22:54.646176","MEAN_MOTION":15.27666538,"ECCENTRICITY":0.00084816,"INCLINATION":86.3501,"RA_OF_ASC_NODE":180.5413,"ARG_OF_PERICENTER":14.8337,"MEAN_ANOMALY":345.3157,"EPHEMERIS_TYPE":0,"CLASSIFICATION_TYPE":"U","NORAD_CAT_ID":26365,"ELEMENT_SET_NO":999,"REV_AT_EPOCH":42720,"BSTAR":0.00013499313,"MEAN_MOTION_DOT":3.69e-5,"MEAN_MOTION_DDOT":0}]
